STARLINK-2407           
1 47822U 21018AM  21261.65552553  .00001415  00000-0  11388-3 0  9998
2 47822  53.0568  32.5830 0001519  98.2335 261.8826 15.06408193 30327
STARLINK-2408           
1 47823U 21018AN  21261.60485442 -.00000625  00000-0 -23041-4 0  9990
2 47823  53.0573  22.8165 0001322  93.1285 266.9855 15.06393440 30109
STARLINK-2409           
1 47824U 21018AP  21261.72648716 -.00000601  00000-0 -21461-4 0  9997
2 47824  53.0555  22.2881 0001260  91.0446 269.0687 15.06395015 30462
STARLINK-2410           
1 47825U 21018AQ  21261.74492233  .00001251  00000-0  10291-3 0  9999
2 47825  53.0557  22.1776 0001551 105.0986 255.0175 15.06396254 30479
STARLINK-2411           
1 47826U 21018AR  21261.74123371 -.00000793  00000-0 -34326-4 0  9992
2 47826  53.0570  22.2060 0001348  87.3021 272.8122 15.06395089 30472
STARLINK-2413           
1 47827U 21018AS  21261.70067255  .00001309  00000-0  10679-3 0  9993
2 47827  53.0584  12.3840 0001175 107.3054 252.8063 15.06393700 30662
STARLINK-2415           
1 47828U 21018AT  21261.65922488 -.00000515  00000-0 -15681-4 0  9995
2 47828  53.0571  32.5712 0001683  95.5657 264.5524 15.06393087 30325
STARLINK-2416           
1 47829U 21018AU  21261.08053069  .00000867  00000-0  77072-4 0  9993
2 47829  53.0565  35.1735 0001420  99.2903 260.8246 15.06393798 30225
STARLINK-2419           
1 47830U 21018AV  21261.74030803  .00000782  00000-0  71399-4 0  9991
2 47830  53.0578  32.2068 0001410  95.5263 264.5887 15.06396234 30326
STARLINK-2420           
1 47831U 21018AW  21261.68085083  .00001170  00000-0  97427-4 0  9997
2 47831  53.0534   7.4768 0001100 120.7770 239.3327 15.06397953 30722
STARLINK-2422           
1 47832U 21018AX  21261.63065712  .00000409  00000-0  46347-4 0  9999
2 47832  53.0569  22.7003 0001353  98.5036 261.6106 15.06387429 30450
STARLINK-2423           
1 47833U 21018AY  21261.65645661 -.00000535  00000-0 -17013-4 0  9999
2 47833  53.0575  22.5847 0001584  94.4191 265.6979 15.06392489 30516
STARLINK-2424           
1 47834U 21018AZ  21261.73385381  .00000791  00000-0  72013-4 0  9992
2 47834  53.0567  22.2349 0001240  98.0128 262.1001 15.06403728 30529
STARLINK-2425           
1 47835U 21018BA  21261.61634868  .00001066  00000-0  90477-4 0  9997
2 47835  53.0562  27.7946 0001258  96.0117 264.1015 15.06396763 30373
STARLINK-2426           
1 47836U 21018BB  21261.74398922  .00001252  00000-0  10295-3 0  9996
2 47836  53.0558  22.1827 0001494  94.4339 265.6820 15.06390651 30477
STARLINK-2427           
1 47837U 21018BC  21261.69515981 -.00000502  00000-0 -14819-4 0  9993
2 47837  53.0591   2.4049 0001250 103.2054 256.9074 15.06396298 30753
STARLINK-2429           
1 47838U 21018BD  21261.64170377 -.00003168  00000-0 -19378-3 0  9990
2 47838  53.0570  22.6602 0001055  88.8685 271.2425 15.06415722 30452
STARLINK-2431           
1 47839U 21018BE  21261.45871823  .00001508  00000-0  67397-4 0  9993
2 47839  53.0570   1.1386 0001265  70.1787 289.9348 15.27868560 30752
STARLINK-2432           
1 47840U 21018BF  21261.68040671  .00001039  00000-0  88604-4 0  9992
2 47840  53.0544   2.4744 0000986 137.1237 222.9829 15.06401926 30746
STARLINK-2433           
1 47841U 21018BG  21261.67673025 -.00000103  00000-0  11951-4 0  9990
2 47841  53.0565   2.4863 0001370 122.0537 238.0586 15.06391552 30747
STARLINK-2434           
1 47842U 21018BH  21261.66289888  .00001009  00000-0  86592-4 0  9998
2 47842  53.0572  32.5557 0001676 102.6014 257.5162 15.06402135 30378
STARLINK-2435           
1 47843U 21018BJ  21261.63572190  .00001179  00000-0  98032-4 0  9997
2 47843  53.0574  27.6791 0001530  89.8575 270.2589 15.06400631 30401
STARLINK-2446           
1 47844U 21018BK  21261.70067693 -.00003586  00000-0 -22188-3 0  9997
2 47844  53.0566  22.3832 0001536  90.1515 269.9650 15.06417552 30466
STARLINK-2453           
1 47845U 21018BL  21261.71912851  .00003853  00000-0  27756-3 0  9995
2 47845  53.0562  22.3157 0001602 123.9654 236.1487 15.06378652 30478
STARLINK-2456           
1 47846U 21018BM  21261.71543792 -.00000541  00000-0 -17402-4 0  9991
2 47846  53.0579  22.3312 0001410  81.2726 278.8422 15.06394921 30528
SHIYAN 9 (SY-9)         
1 47851U 21019A   21261.50002220 -.00000006  00000-0  10713-2 0  9992
2 47851  19.8989  29.3142 7206539 306.1413   6.9977  2.25974521  4326
YAOGAN-31 K             
1 47854U 21020A   21261.77966258 -.00000066  00000-0  39974-4 0  9994
2 47854  63.4109  26.6882 0019989 337.5336  22.4807 13.45213559 25515
2021-020B               
1 47855U 21020B   21261.75726295 -.00000087  00000-0  47351-5 0  9990
2 47855  63.4134  27.9859 0015426 345.2966  14.7608 13.43815399 25497
YAOGAN-31 L             
1 47856U 21020C   21261.77986549 -.00000072  00000-0  30707-4 0  9993
2 47856  63.4097  27.5627 0019668 337.3901  22.6256 13.45212492 25504
YAOGAN-31 M             
1 47857U 21020D   21261.77987587 -.00000068  00000-0  37138-4 0  9997
2 47857  63.4115  26.6948 0019745 337.8223  22.1948 13.45212165 25511
STARLINK-2258           
1 47860U 21021A   21261.72003948 -.00000686  00000-0 -27163-4 0  9991
2 47860  53.0580  52.2944 0001236 117.8176 242.2938 15.06395791 29824
STARLINK-2280           
1 47861U 21021B   21261.67168420 -.00003534  00000-0 -21860-3 0  9995
2 47861  53.0529  37.5169 0002828 132.2037 227.9193 15.06371431 30132
STARLINK-2291           
1 47862U 21021C   21261.65185798  .00001167  00000-0  97236-4 0  9990
2 47862  53.0573  32.6003 0001226 127.0826 233.0275 15.06392062 30192
STARLINK-2293           
1 47863U 21021D   21261.67672428  .00000926  00000-0  81059-4 0  9992
2 47863  53.0565  42.4925 0001306 120.6876 239.4241 15.06399599 30060
STARLINK-2304           
1 47864U 21021E   21261.65090363  .00000954  00000-0  82966-4 0  9992
2 47864  53.0593  32.6063 0001295 132.9685 227.1412 15.06393905 30178
STARLINK-2310           
1 47865U 21021F   21261.65093133 -.00000597  00000-0 -21190-4 0  9998
2 47865  53.0560  42.5967 0001498 118.4260 241.6880 15.06395021 30169
STARLINK-2320           
1 47866U 21021G   21261.65461550 -.00003846  00000-0 -23934-3 0  9998
2 47866  53.0567  42.5845 0001348 116.4349 243.6778 15.06409777 30210
STARLINK-2321           
1 47867U 21021H   21261.64815751  .00001196  00000-0  99177-4 0  9991
2 47867  53.0567  32.6130 0001281 133.3591 226.7505 15.06405831 30151
STARLINK-2323           
1 47868U 21021J   21261.73727084  .00007439  00000-0  57264-4 0  9990
2 47868  53.0479   2.2842 0004908 349.8977  10.1942 15.73247005 30632
STARLINK-2324           
1 47869U 21021K   21261.64447647  .00001123  00000-0  94249-4 0  9993
2 47869  53.0575  32.6342 0001327 132.1253 227.9849 15.06400906 30309
STARLINK-2326           
1 47870U 21021L   21261.72048792  .00000736  00000-0  68298-4 0  9996
2 47870  53.0570  57.2933 0001983  91.4690 268.6526 15.06390712 29759
STARLINK-2327           
1 47871U 21021M   21261.64079598  .00000980  00000-0  84686-4 0  9996
2 47871  53.0574  32.6508 0001418 123.0267 237.0859 15.06394676 30196
STARLINK-2328           
1 47872U 21021N   21261.73704812  .00012198  00000-0  90991-4 0  9991
2 47872  53.0481   2.2842 0004132 359.6872   0.4142 15.73249139 30636
STARLINK-2329           
1 47873U 21021P   21261.75505410  .00001031  00000-0  88105-4 0  9995
2 47873  53.0473  32.1758 0001480 138.4087 221.7014 15.06396882 30203
STARLINK-2330           
1 47874U 21021Q   21261.73716467  .00023162  00000-0  16846-3 0  9991
2 47874  53.0480   2.2875 0004957   7.2505 352.8584 15.73260335 30632
STARLINK-2331           
1 47875U 21021R   21261.68041144 -.00000186  00000-0  64487-5 0  9997
2 47875  53.0552  42.4719 0001661 114.8327 245.2835 15.06400038 30111
STARLINK-2332           
1 47876U 21021S   21261.66936059  .00000468  00000-0  50311-4 0  9996
2 47876  53.0570  42.5200 0001714 124.2907 235.8244 15.06392400 30062
STARLINK-2333           
1 47877U 21021T   21261.68409976  .00000956  00000-0  83033-4 0  9991
2 47877  53.0550  42.4539 0001532 122.8468 237.2668 15.06402717 30057
STARLINK-2335           
1 47878U 21021U   21261.69516229 -.00000812  00000-0 -35618-4 0  9992
2 47878  53.0581  42.4072 0001363 103.1879 256.9262 15.06390347 29853
STARLINK-2336           
1 47879U 21021V   21261.69193579 -.00000411  00000-0 -87077-5 0  9994
2 47879  53.0542  57.4286 0002075  95.7576 264.3649 15.06394246 30020
STARLINK-2337           
1 47880U 21021W   21261.53480414 -.00000934  00000-0 -43790-4 0  9999
2 47880  53.0552  53.1199 0001652  99.3548 260.7628 15.06392479 29894
STARLINK-2339           
1 47881U 21021X   21261.69055665 -.00000756  00000-0 -31840-4 0  9998
2 47881  53.0570  52.3182 0001588  59.5603 300.5543 15.06393914 29889
STARLINK-2340           
1 47882U 21021Y   21261.66567638  .00001263  00000-0  10368-3 0  9997
2 47882  53.0565  42.5328 0001695 120.8368 239.2788 15.06398288 30224
STARLINK-2342           
1 47883U 21021Z   21261.70391219  .00001043  00000-0  88938-4 0  9998
2 47883  53.0589  47.3624 0001479 109.5279 250.5869 15.06399027 30169
STARLINK-2343           
1 47884U 21021AA  21261.68686351 -.00000905  00000-0 -41889-4 0  9992
2 47884  53.0533  52.4550 0001856  87.6549 272.4653 15.06396011 29914
STARLINK-2344           
1 47885U 21021AB  21261.48183216  .00002894  00000-0  21317-3 0  9993
2 47885  53.0569  58.3613 0001676  81.7434 278.3745 15.06385463 29339
STARLINK-2345           
1 47886U 21021AC  21261.68086001  .00001090  00000-0  92085-4 0  9998
2 47886  53.0562  47.4699 0001466 102.3311 257.7842 15.06395703 29996
STARLINK-2346           
1 47887U 21021AD  21261.70530642  .00000875  00000-0  77644-4 0  9991
2 47887  53.0581  52.3615 0001479  97.9354 262.1803 15.06394364 29923
STARLINK-2348           
1 47888U 21021AE  21261.66198263  .00000922  00000-0  80813-4 0  9991
2 47888  53.0563  42.5507 0001648 121.9267 238.1882 15.06398513 30061
